FLOCK 4Q-15             
1 58319U 23174BR  26062.81019291  .00148429  00000+0  19017-2 0  9997
2 58319  97.3920 153.4585 0005127 168.9887 191.1482 15.58658935129554
FLOCK 4Q-2              
1 58320U 23174BS  26062.84662259  .00033555  00000+0  71942-3 0  9999
2 58320  97.3876 149.1566 0007996 156.8139 203.3472 15.44641840129310
FLOCK 4Q-9              
1 58322U 23174BU  26062.73468905  .00032479  00000+0  70490-3 0  9992
2 58322  97.3913 149.0864 0008093 158.0486 202.1111 15.44285966129288
FLOCK 4Q-4              
1 58327U 23174BZ  26062.66998468  .00029807  00000+0  65543-3 0  9995
2 58327  97.3872 148.4003 0007460 175.7379 184.3934 15.43920715129257
FLOCK 4Q-13             
1 58328U 23174CA  26062.77941914  .00038363  00000+0  77002-3 0  9992
2 58328  97.4031 150.8943 0007499 170.0863 190.0535 15.46554658129358
FLOCK 4Q-21             
1 58329U 23174CB  26062.72752858  .00065136  00000+0  90772-3 0  9992
2 58329  97.3942 153.8362 0005776 175.8561 184.2743 15.56697611129568
FLOCK 4BE-18            
1 60480U 24149N   26062.75739265  .00025946  00000+0  69512-3 0  9999
2 60480  97.3788 145.6543 0003026 268.0863  92.0035 15.37982333 86089
FLOCK 4BE-7             
1 60481U 24149P   26062.82931968  .00020933  00000+0  59796-3 0  9996
2 60481  97.3820 145.3291 0002004 260.1256  99.9761 15.36031214 86059
FLOCK 4BE-26            
1 60484U 24149S   26062.72736932  .00116081  00000+0  26035-2 0  9991
2 60484  97.3772 145.4992 0005821 258.1030 101.9565 15.42947979 86073
FLOCK 4BE-36            
1 60486U 24149U   26062.72478205  .00027651  00000+0  72027-3 0  9996
2 60486  97.3798 146.1588 0002759 280.9309  79.1626 15.38837940 86111
FLOCK 4BE-25            
1 60487U 24149V   26062.77702445  .00021296  00000+0  61345-3 0  9998
2 60487  97.3855 145.4256 0001212 245.3776 114.7341 15.35765645 86047
FLOCK 4BE-31            
1 60488U 24149W   26062.69678617  .00030232  00000+0  76745-3 0  9993
2 60488  97.3853 146.7419 0001687 274.8062  85.2991 15.39613348 86120
FLOCK 4BE-20            
1 60489U 24149X   26062.75245674  .00018555  00000+0  54728-3 0  9995
2 60489  97.3761 144.5439 0002409 272.9939  87.1029 15.35048978 86021
FLOCK 4BE-23            
1 60490U 24149Y   26062.71776918  .00018414  00000+0  54942-3 0  9995
2 60490  97.3840 144.8278 0002064 287.0427  73.0590 15.34687292 86003
FLOCK 4BE-15            
1 60491U 24149Z   26062.73152570  .00097808  00000+0  24840-2 0  9997
2 60491  97.3777 145.8556 0002881 331.1779  28.9307 15.39270141 86103
FLOCK 4BE-17            
1 60492U 24149AA  26062.70323800  .00021133  00000+0  59685-3 0  9995
2 60492  97.3834 145.4779 0002008 261.8136  98.2880 15.36385559 86044
FLOCK 4BE-22            
1 60494U 24149AC  26062.70751892  .00026227  00000+0  71515-3 0  9998
2 60494  97.3788 145.5277 0002692 288.6658  71.4294 15.37434756 86073
