[{"OBJECT_NAME":"FLOCK 4Q-15","OBJECT_ID":"2023-174BR","EPOCH":"2026-03-03T19:26:40.667424","MEAN_MOTION":15.58658935,"ECCENTRICITY":0.0005127,"INCLINATION":97.392,"RA_OF_ASC_NODE":153.4585,"ARG_OF_PERICENTER":168.9887,"MEAN_ANOMALY":191.1482,"EPHEMERIS_TYPE":0,"CLASSIFICATION_TYPE":"U","NORAD_CAT_ID":58319,"ELEMENT_SET_NO":999,"REV_AT_EPOCH":12955,"BSTAR":0.0019017,"MEAN_MOTION_DOT":0.00148429,"MEAN_MOTION_DDOT":0},{"OBJECT_NAME":"FLOCK 4Q-2","OBJECT_ID":"2023-174BS","EPOCH":"2026-03-03T20:19:08.191776","MEAN_MOTION":15.4464184,"ECCENTRICITY":0.0007996,"INCLINATION":97.3876,"RA_OF_ASC_NODE":149.1566,"ARG_OF_PERICENTER":156.8139,"MEAN_ANOMALY":203.3472,"EPHEMERIS_TYPE":0,"CLASSIFICATION_TYPE":"U","NORAD_CAT_ID":58320,"ELEMENT_SET_NO":999,"REV_AT_EPOCH":12931,"BSTAR":0.00071942,"MEAN_MOTION_DOT":0.00033555,"MEAN_MOTION_DDOT":0},{"OBJECT_NAME":"FLOCK 4Q-9","OBJECT_ID":"2023-174BU","EPOCH":"2026-03-03T17:37:57.133920","MEAN_MOTION":15.44285966,"ECCENTRICITY":0.0008093,"INCLINATION":97.3913,"RA_OF_ASC_NODE":149.0864,"ARG_OF_PERICENTER":158.0486,"MEAN_ANOMALY":202.1111,"EPHEMERIS_TYPE":0,"CLASSIFICATION_TYPE":"U","NORAD_CAT_ID":58322,"ELEMENT_SET_NO":999,"REV_AT_EPOCH":12928,"BSTAR":0.0007049,"MEAN_MOTION_DOT":0.00032479,"MEAN_MOTION_DDOT":0},{"OBJECT_NAME":"FLOCK 4Q-4","OBJECT_ID":"2023-174BZ","EPOCH":"2026-03-03T16:04:46.676352","MEAN_MOTION":15.43920715,"ECCENTRICITY":0.000746,"INCLINATION":97.3872,"RA_OF_ASC_NODE":148.4003,"ARG_OF_PERICENTER":175.7379,"MEAN_ANOMALY":184.3934,"EPHEMERIS_TYPE":0,"CLASSIFICATION_TYPE":"U","NORAD_CAT_ID":58327,"ELEMENT_SET_NO":999,"REV_AT_EPOCH":12925,"BSTAR":0.00065543,"MEAN_MOTION_DOT":0.00029807,"MEAN_MOTION_DDOT":0},{"OBJECT_NAME":"FLOCK 4Q-13","OBJECT_ID":"2023-174CA","EPOCH":"2026-03-03T18:42:21.813696","MEAN_MOTION":15.46554658,"ECCENTRICITY":0.0007499,"INCLINATION":97.4031,"RA_OF_ASC_NODE":150.8943,"ARG_OF_PERICENTER":170.0863,"MEAN_ANOMALY":190.0535,"EPHEMERIS_TYPE":0,"CLASSIFICATION_TYPE":"U","NORAD_CAT_ID":58328,"ELEMENT_SET_NO":999,"REV_AT_EPOCH":12935,"BSTAR":0.00077002,"MEAN_MOTION_DOT":0.00038363,"MEAN_MOTION_DDOT":0},{"OBJECT_NAME":"FLOCK 4Q-21","OBJECT_ID":"2023-174CB","EPOCH":"2026-03-03T17:27:38.469312","MEAN_MOTION":15.56697611,"ECCENTRICITY":0.0005776,"INCLINATION":97.3942,"RA_OF_ASC_NODE":153.8362,"ARG_OF_PERICENTER":175.8561,"MEAN_ANOMALY":184.2743,"EPHEMERIS_TYPE":0,"CLASSIFICATION_TYPE":"U","NORAD_CAT_ID":58329,"ELEMENT_SET_NO":999,"REV_AT_EPOCH":12956,"BSTAR":0.00090772,"MEAN_MOTION_DOT":0.00065136,"MEAN_MOTION_DDOT":0},{"OBJECT_NAME":"FLOCK 4BE-18","OBJECT_ID":"2024-149N","EPOCH":"2026-03-03T18:10:38.724960","MEAN_MOTION":15.37982333,"ECCENTRICITY":0.0003026,"INCLINATION":97.3788,"RA_OF_ASC_NODE":145.6543,"ARG_OF_PERICENTER":268.0863,"MEAN_ANOMALY":92.0035,"EPHEMERIS_TYPE":0,"CLASSIFICATION_TYPE":"U","NORAD_CAT_ID":60480,"ELEMENT_SET_NO":999,"REV_AT_EPOCH":8608,"BSTAR":0.00069512,"MEAN_MOTION_DOT":0.00025946,"MEAN_MOTION_DDOT":0},{"OBJECT_NAME":"FLOCK 4BE-7","OBJECT_ID":"2024-149P","EPOCH":"2026-03-03T19:54:13.220352","MEAN_MOTION":15.36031214,"ECCENTRICITY":0.0002004,"INCLINATION":97.382,"RA_OF_ASC_NODE":145.3291,"ARG_OF_PERICENTER":260.1256,"MEAN_ANOMALY":99.9761,"EPHEMERIS_TYPE":0,"CLASSIFICATION_TYPE":"U","NORAD_CAT_ID":60481,"ELEMENT_SET_NO":999,"REV_AT_EPOCH":8605,"BSTAR":0.00059796,"MEAN_MOTION_DOT":0.00020933,"MEAN_MOTION_DDOT":0},{"OBJECT_NAME":"FLOCK 4BE-26","OBJECT_ID":"2024-149S","EPOCH":"2026-03-03T17:27:24.709248","MEAN_MOTION":15.42947979,"ECCENTRICITY":0.0005821,"INCLINATION":97.3772,"RA_OF_ASC_NODE":145.4992,"ARG_OF_PERICENTER":258.103,"MEAN_ANOMALY":101.9565,"EPHEMERIS_TYPE":0,"CLASSIFICATION_TYPE":"U","NORAD_CAT_ID":60484,"ELEMENT_SET_NO":999,"REV_AT_EPOCH":8607,"BSTAR":0.0026035,"MEAN_MOTION_DOT":0.00116081,"MEAN_MOTION_DDOT":0},{"OBJECT_NAME":"FLOCK 4BE-36","OBJECT_ID":"2024-149U","EPOCH":"2026-03-03T17:23:41.169120","MEAN_MOTION":15.3883794,"ECCENTRICITY":0.0002759,"INCLINATION":97.3798,"RA_OF_ASC_NODE":146.1588,"ARG_OF_PERICENTER":280.9309,"MEAN_ANOMALY":79.1626,"EPHEMERIS_TYPE":0,"CLASSIFICATION_TYPE":"U","NORAD_CAT_ID":60486,"ELEMENT_SET_NO":999,"REV_AT_EPOCH":8611,"BSTAR":0.00072027,"MEAN_MOTION_DOT":0.00027651,"MEAN_MOTION_DDOT":0},{"OBJECT_NAME":"FLOCK 4BE-25","OBJECT_ID":"2024-149V","EPOCH":"2026-03-03T18:38:54.912480","MEAN_MOTION":15.35765645,"ECCENTRICITY":0.0001212,"INCLINATION":97.3855,"RA_OF_ASC_NODE":145.4256,"ARG_OF_PERICENTER":245.3776,"MEAN_ANOMALY":114.7341,"EPHEMERIS_TYPE":0,"CLASSIFICATION_TYPE":"U","NORAD_CAT_ID":60487,"ELEMENT_SET_NO":999,"REV_AT_EPOCH":8604,"BSTAR":0.00061345,"MEAN_MOTION_DOT":0.00021296,"MEAN_MOTION_DDOT":0},{"OBJECT_NAME":"FLOCK 4BE-31","OBJECT_ID":"2024-149W","EPOCH":"2026-03-03T16:43:22.325088","MEAN_MOTION":15.39613348,"ECCENTRICITY":0.0001687,"INCLINATION":97.3853,"RA_OF_ASC_NODE":146.7419,"ARG_OF_PERICENTER":274.8062,"MEAN_ANOMALY":85.2991,"EPHEMERIS_TYPE":0,"CLASSIFICATION_TYPE":"U","NORAD_CAT_ID":60488,"ELEMENT_SET_NO":999,"REV_AT_EPOCH":8612,"BSTAR":0.00076745,"MEAN_MOTION_DOT":0.00030232,"MEAN_MOTION_DDOT":0},{"OBJECT_NAME":"FLOCK 4BE-20","OBJECT_ID":"2024-149X","EPOCH":"2026-03-03T18:03:32.262336","MEAN_MOTION":15.35048978,"ECCENTRICITY":0.0002409,"INCLINATION":97.3761,"RA_OF_ASC_NODE":144.5439,"ARG_OF_PERICENTER":272.9939,"MEAN_ANOMALY":87.1029,"EPHEMERIS_TYPE":0,"CLASSIFICATION_TYPE":"U","NORAD_CAT_ID":60489,"ELEMENT_SET_NO":999,"REV_AT_EPOCH":8602,"BSTAR":0.00054728,"MEAN_MOTION_DOT":0.00018555,"MEAN_MOTION_DDOT":0},{"OBJECT_NAME":"FLOCK 4BE-23","OBJECT_ID":"2024-149Y","EPOCH":"2026-03-03T17:13:35.257152","MEAN_MOTION":15.34687292,"ECCENTRICITY":0.0002064,"INCLINATION":97.384,"RA_OF_ASC_NODE":144.8278,"ARG_OF_PERICENTER":287.0427,"MEAN_ANOMALY":73.059,"EPHEMERIS_TYPE":0,"CLASSIFICATION_TYPE":"U","NORAD_CAT_ID":60490,"ELEMENT_SET_NO":999,"REV_AT_EPOCH":8600,"BSTAR":0.00054942,"MEAN_MOTION_DOT":0.00018414,"MEAN_MOTION_DDOT":0},{"OBJECT_NAME":"FLOCK 4BE-15","OBJECT_ID":"2024-149Z","EPOCH":"2026-03-03T17:33:23.820480","MEAN_MOTION":15.39270141,"ECCENTRICITY":0.0002881,"INCLINATION":97.3777,"RA_OF_ASC_NODE":145.8556,"ARG_OF_PERICENTER":331.1779,"MEAN_ANOMALY":28.9307,"EPHEMERIS_TYPE":0,"CLASSIFICATION_TYPE":"U","NORAD_CAT_ID":60491,"ELEMENT_SET_NO":999,"REV_AT_EPOCH":8610,"BSTAR":0.002484,"MEAN_MOTION_DOT":0.00097808,"MEAN_MOTION_DDOT":0},{"OBJECT_NAME":"FLOCK 4BE-17","OBJECT_ID":"2024-149AA","EPOCH":"2026-03-03T16:52:39.763200","MEAN_MOTION":15.36385559,"ECCENTRICITY":0.0002008,"INCLINATION":97.3834,"RA_OF_ASC_NODE":145.4779,"ARG_OF_PERICENTER":261.8136,"MEAN_ANOMALY":98.288,"EPHEMERIS_TYPE":0,"CLASSIFICATION_TYPE":"U","NORAD_CAT_ID":60492,"ELEMENT_SET_NO":999,"REV_AT_EPOCH":8604,"BSTAR":0.00059685,"MEAN_MOTION_DOT":0.00021133,"MEAN_MOTION_DDOT":0},{"OBJECT_NAME":"FLOCK 4BE-22","OBJECT_ID":"2024-149AC","EPOCH":"2026-03-03T16:58:49.634688","MEAN_MOTION":15.37434756,"ECCENTRICITY":0.0002692,"INCLINATION":97.3788,"RA_OF_ASC_NODE":145.5277,"ARG_OF_PERICENTER":288.6658,"MEAN_ANOMALY":71.4294,"EPHEMERIS_TYPE":0,"CLASSIFICATION_TYPE":"U","NORAD_CAT_ID":60494,"ELEMENT_SET_NO":999,"REV_AT_EPOCH":8607,"BSTAR":0.00071515,"MEAN_MOTION_DOT":0.00026227,"MEAN_MOTION_DDOT":0}]
